[{"OBJECT_NAME":"STARLINK-32939","OBJECT_ID":"2025-043T","EPOCH":"2026-03-09T05:24:42.410304","MEAN_MOTION":15.2757332,"ECCENTRICITY":0.00010214,"INCLINATION":43.0009,"RA_OF_ASC_NODE":18.6589,"ARG_OF_PERICENTER":262.0467,"MEAN_ANOMALY":98.0269,"EPHEMERIS_TYPE":0,"CLASSIFICATION_TYPE":"U","NORAD_CAT_ID":63149,"ELEMENT_SET_NO":999,"REV_AT_EPOCH":5729,"BSTAR":0.0010526768,"MEAN_MOTION_DOT":0.00028812,"MEAN_MOTION_DDOT":0},{"OBJECT_NAME":"CZ-6A DEB","OBJECT_ID":"2024-140YZ","EPOCH":"2026-03-09T14:14:13.172928","MEAN_MOTION":14.91044947,"ECCENTRICITY":0.0161166,"INCLINATION":89.0861,"RA_OF_ASC_NODE":285.7767,"ARG_OF_PERICENTER":146.5264,"MEAN_ANOMALY":214.6281,"EPHEMERIS_TYPE":0,"CLASSIFICATION_TYPE":"U","NORAD_CAT_ID":61432,"ELEMENT_SET_NO":999,"REV_AT_EPOCH":8368,"BSTAR":0.0010034,"MEAN_MOTION_DOT":0.0001278,"MEAN_MOTION_DDOT":0}]
